HORIZONS-3E             
1 43633U 18074B   26160.16142285 -.00000014  00000+0  00000+0 0  9997
2 43633   0.0093 158.1609 0000957 124.5481 201.9406  1.00270197 28266
AEHF-4 (USA 288)        
1 43651U 18079A   26161.46913214 -.00000258  00000+0  00000+0 0  9994
2 43651   1.4303   3.3543 0060505 356.6695   0.1201  1.00275174 28221
BEIDOU-3 G1             
1 43683U 18085A   26161.64076690 -.00000091  00000+0  00000+0 0  9999
2 43683   2.8504  97.5677 0008364 348.0556 204.0300  1.00271246 27997
GSAT-29                 
1 43698U 18089A   26161.56470465  .00000103  00000+0  00000+0 0  9991
2 43698   0.0504 109.8533 0003454 325.0660  82.3296  1.00272030 27721
ES'HAIL 2               
1 43700U 18090A   26161.55889796  .00000162  00000+0  00000+0 0  9992
2 43700   0.0124 297.5952 0001894 183.1386   5.2106  1.00273986 27610
GEO-KOMPSAT-2A          
1 43823U 18100A   26161.49975120 -.00000326  00000+0  00000+0 0  9993
2 43823   0.0406 142.1603 0002206 303.3581 121.5075  1.00270047 27564
GSAT-11                 
1 43824U 18100B   26161.56825800 -.00000059  00000+0  00000+0 0  9994
2 43824   0.0452 255.8606 0007772 190.6036  91.0427  1.00271204 27418
GSAT-7A                 
1 43864U 18105A   26161.62063301  .00000044  00000+0  00000+0 0  9993
2 43864   0.0147 288.0876 0002113 131.6154 125.4875  1.00269581 27380
COSMOS 2533             
1 43867U 18107A   26160.49831235 -.00000021  00000+0  00000+0 0  9997
2 43867   0.0434 101.3867 0000299  24.8871  20.9850  1.00270322 27377
TJS-3                   
1 43874U 18110A   26161.72292175 -.00000199  00000+0  00000+0 0  9996
2 43874   2.5272  80.5678 0002035  79.3462 147.6744  1.00272248 27357
HELLAS-SAT 4 & SGS-1    
1 44034U 19007A   26160.49215899  .00000170  00000+0  00000+0 0  9990
2 44034   0.0659 133.0572 0005087   8.6055 332.4040  1.00272091 27290
GSAT-31                 
1 44035U 19007B   26161.56331797  .00000143  00000+0  00000+0 0  9996
2 44035   0.0818 261.4092 0001914 104.4429 143.6743  1.00271629 26901
NUSANTARA SATU          
1 44048U 19009A   26160.22819295 -.00000218  00000+0  00000+0 0  9992
2 44048   0.0401 145.4911 0004291 326.7553  13.5159  1.00269842 26698
TIANLIAN 2-01           
1 44076U 19017A   26161.45739475 -.00000089  00000+0  00000+0 0  9995
2 44076   0.5215  83.1193 0000741  14.6839  42.7006  1.00270995 26587
ARABSAT-6A              
1 44186U 19021A   26160.20529443  .00000171  00000+0  00000+0 0  9997
2 44186   0.0494   0.6850 0001280 101.2480 260.1178  1.00284123 26079
BEIDOU-3 IGSO-1         
1 44204U 19023A   26157.95428288 -.00000215  00000+0  00000+0 0  9993
2 44204  58.6799  37.7569 0025434 225.6649  92.8731  1.00294886  7105
BEIDOU-2 G8             
1 44231U 19027A   26161.65365648 -.00000230  00000+0  00000+0 0  9996
2 44231   1.6403  74.4990 0010378 283.6622 280.7023  1.00273444 26017
AT&T T-16               
1 44333U 19034A   26160.67834545 -.00000098  00000+0  00000+0 0  9997
2 44333   0.0247  68.1337 0000640 190.5571 142.7032  1.00268740 25552
EUTELSAT 7C             
1 44334U 19034B   26161.16086221  .00000066  00000+0  00000+0 0  9997
2 44334   0.0735 173.1347 0003061 250.6305 259.6729  1.00271195  6767
BEIDOU-3 IGSO-2         
1 44337U 19035A   26160.01737213 -.00000043  00000+0  00000+0 0  9994
2 44337  55.2449 158.9337 0039959 216.4337   8.1508  1.00269508 25582
EDRS-C                  
1 44475U 19049A   26160.65529200 -.00000245  00000+0  00000+0 0  9991
2 44475   0.0409 141.6066 0001007 308.4571 186.3828  1.00270940 25139
INTELSAT 39 (IS-39)     
1 44476U 19049B   26161.62129983  .00000051  00000+0  00000+0 0  9998
2 44476   0.0197 325.9148 0000927 346.0260 232.6606  1.00270455 25067
AMOS-17                 
1 44479U 19050A   26160.98667957  .00000126  00000+0  00000+0 0  9992
2 44479   0.0150 336.4106 0001569 127.3490 166.7906  1.00270721 25110
AEHF-5 (USA 292)        
1 44481U 19051A   26161.65081214 -.00000240  00000+0  00000+0 0  9995
2 44481   1.4593 335.6544 0067011   0.6894 249.9478  1.00266771 25197
EUTELSAT 5 WEST B       
1 44624U 19067A   26161.33896109 -.00000025  00000+0  00000+0 0  9994
2 44624   0.0628 350.5485 0003056  88.7651 296.4273  1.00271927 24364
TJS-4                   
1 44637U 19070A   26161.63983637  .00000000  00000+0  00000+0 0  9990
2 44637   0.0221 332.5983 0004567  66.8380 173.4045  1.00267964 24473
BEIDOU-3 IGSO-3         
1 44709U 19073A   26136.81046384 -.00000217  00000+0  00000+0 0  9995
2 44709  54.8566 281.2355 0042953 189.4588 170.3676  1.00246251 24144
