OBJECT_NAME,OBJECT_ID,EPOCH,MEAN_MOTION,ECCENTRICITY,INCLINATION,RA_OF_ASC_NODE,ARG_OF_PERICENTER,MEAN_ANOMALY,EPHEMERIS_TYPE,CLASSIFICATION_TYPE,NORAD_CAT_ID,ELEMENT_SET_NO,REV_AT_EPOCH,BSTAR,MEAN_MOTION_DOT,MEAN_MOTION_DDOT
HORIZONS-3E,2018-074B,2026-06-09T03:52:26.934240,1.00270197,.0000957,0.0093,158.1609,124.5481,201.9406,0,U,43633,999,2826,0,-.14E-6,0
AEHF-4 (USA 288),2018-079A,2026-06-10T11:15:33.016896,1.00275174,.00605052,1.4303,3.3543,356.6695,0.1201,0,U,43651,999,2822,0,-.258E-5,0
BEIDOU-3 G1,2018-085A,2026-06-10T15:22:42.260160,1.00271246,.00083648,2.8504,97.5677,348.0556,204.0300,0,U,43683,999,2799,0,-.91E-6,0
GSAT-29,2018-089A,2026-06-10T13:33:10.481760,1.00272030,.00034544,0.0504,109.8533,325.0660,82.3296,0,U,43698,999,2772,0,.103E-5,0
ES'HAIL 2,2018-090A,2026-06-10T13:24:48.783744,1.00273986,.00018948,0.0124,297.5952,183.1386,5.2106,0,U,43700,999,2761,0,.162E-5,0
GEO-KOMPSAT-2A,2018-100A,2026-06-10T11:59:38.503680,1.00270047,.00022067,0.0406,142.1603,303.3581,121.5075,0,U,43823,999,2756,0,-.326E-5,0
GSAT-11,2018-100B,2026-06-10T13:38:17.491200,1.00271204,.00077722,0.0452,255.8606,190.6036,91.0427,0,U,43824,999,2741,0,-.59E-6,0
GSAT-7A,2018-105A,2026-06-10T14:53:42.692064,1.00269581,.0002113,0.0147,288.0876,131.6154,125.4875,0,U,43864,999,2738,0,.44E-6,0
COSMOS 2533,2018-107A,2026-06-09T11:57:34.187040,1.00270322,.00002998,0.0434,101.3867,24.8871,20.9850,0,U,43867,999,2737,0,-.21E-6,0
TJS-3,2018-110A,2026-06-10T17:21:00.439200,1.00272248,.0002035,2.5272,80.5678,79.3462,147.6744,0,U,43874,999,2735,0,-.199E-5,0
HELLAS-SAT 4 & SGS-1,2019-007A,2026-06-09T11:48:42.536736,1.00272091,.00050878,0.0659,133.0572,8.6055,332.4040,0,U,44034,999,2729,0,.17E-5,0
GSAT-31,2019-007B,2026-06-10T13:31:10.672608,1.00271629,.00019145,0.0818,261.4092,104.4429,143.6743,0,U,44035,999,2690,0,.143E-5,0
NUSANTARA SATU,2019-009A,2026-06-09T05:28:35.870880,1.00269842,.00042913,0.0401,145.4911,326.7553,13.5159,0,U,44048,999,2669,0,-.218E-5,0
TIANLIAN 2-01,2019-017A,2026-06-10T10:58:38.906400,1.00270995,.00007411,0.5215,83.1193,14.6839,42.7006,0,U,44076,999,2658,0,-.89E-6,0
ARABSAT-6A,2019-021A,2026-06-09T04:55:37.438752,1.00284123,.000128,0.0494,0.6850,101.2480,260.1178,0,U,44186,999,2607,0,.171E-5,0
BEIDOU-3 IGSO-1,2019-023A,2026-06-06T22:54:10.040832,1.00294886,.00254341,58.6799,37.7569,225.6649,92.8731,0,U,44204,999,710,0,-.215E-5,0
BEIDOU-2 G8,2019-027A,2026-06-10T15:41:15.919872,1.00273444,.00103786,1.6403,74.4990,283.6622,280.7023,0,U,44231,999,2601,0,-.23E-5,0
AT&T T-16,2019-034A,2026-06-09T16:16:49.046880,1.00268740,.00006409,0.0247,68.1337,190.5571,142.7032,0,U,44333,999,2555,0,-.98E-6,0
EUTELSAT 7C,2019-034B,2026-06-10T03:51:38.494944,1.00271195,.00030612,0.0735,173.1347,250.6305,259.6729,0,U,44334,999,676,0,.66E-6,0
BEIDOU-3 IGSO-2,2019-035A,2026-06-09T00:25:00.952032,1.00269508,.00399597,55.2449,158.9337,216.4337,8.1508,0,U,44337,999,2558,0,-.43E-6,0
EDRS-C,2019-049A,2026-06-09T15:43:37.228800,1.00270940,.00010077,0.0409,141.6066,308.4571,186.3828,0,U,44475,999,2513,0,-.245E-5,0
INTELSAT 39 (IS-39),2019-049B,2026-06-10T14:54:40.305312,1.00270455,.00009278,0.0197,325.9148,346.0260,232.6606,0,U,44476,999,2506,0,.51E-6,0
AMOS-17,2019-050A,2026-06-09T23:40:49.114848,1.00270721,.00015691,0.0150,336.4106,127.3490,166.7906,0,U,44479,999,2511,0,.126E-5,0
AEHF-5 (USA 292),2019-051A,2026-06-10T15:37:10.168896,1.00266771,.00670114,1.4593,335.6544,0.6894,249.9478,0,U,44481,999,2519,0,-.24E-5,0
EUTELSAT 5 WEST B,2019-067A,2026-06-10T08:08:06.238176,1.00271927,.00030565,0.0628,350.5485,88.7651,296.4273,0,U,44624,999,2436,0,-.25E-6,0
TJS-4,2019-070A,2026-06-10T15:21:21.862368,1.00267964,.00045672,0.0221,332.5983,66.8380,173.4045,0,U,44637,999,2447,0,0,0
BEIDOU-3 IGSO-3,2019-073A,2026-05-16T19:27:04.075776,1.00246251,.0042953,54.8566,281.2355,189.4588,170.3676,0,U,44709,999,2414,0,-.217E-5,0
